[{"OBJECT_NAME":"STARLINK-34172","OBJECT_ID":"2025-113D","EPOCH":"2026-03-09T10:56:26.955456","MEAN_MOTION":15.30200712,"ECCENTRICITY":0.00014909,"INCLINATION":53.16,"RA_OF_ASC_NODE":91.9121,"ARG_OF_PERICENTER":63.0337,"MEAN_ANOMALY":297.0816,"EPHEMERIS_TYPE":0,"CLASSIFICATION_TYPE":"U","NORAD_CAT_ID":64173,"ELEMENT_SET_NO":999,"REV_AT_EPOCH":4499,"BSTAR":0.00095097904,"MEAN_MOTION_DOT":0.00027913,"MEAN_MOTION_DDOT":0},{"OBJECT_NAME":"KUIPER-00208","OBJECT_ID":"2026-030M","EPOCH":"2026-03-09T16:08:08.024640","MEAN_MOTION":15.32208734,"ECCENTRICITY":0.00155248,"INCLINATION":51.8846,"RA_OF_ASC_NODE":219.6993,"ARG_OF_PERICENTER":57.3146,"MEAN_ANOMALY":302.9333,"EPHEMERIS_TYPE":0,"CLASSIFICATION_TYPE":"U","NORAD_CAT_ID":67775,"ELEMENT_SET_NO":999,"REV_AT_EPOCH":508,"BSTAR":0.0013882708,"MEAN_MOTION_DOT":0.00043852,"MEAN_MOTION_DDOT":0}]
