STARLINK-34172          
1 64173U 25113D   26068.45586754  .00027913  00000+0  95098-3 0  9994
2 64173  53.1600  91.9121 0001490  63.0337 297.0816 15.30200712 44997
KUIPER-00208            
1 67775U 26030M   26068.67231509  .00043852  00000+0  13883-2 0  9994
2 67775  51.8846 219.6993 0015525  57.3146 302.9333 15.32208734  5080
